[{"OBJECT_NAME":"HULIANWANG DIGUI-101","OBJECT_ID":"2025-258F","EPOCH":"2026-03-09T21:38:49.258464","MEAN_MOTION":13.29333131,"ECCENTRICITY":4.229e-5,"INCLINATION":49.9998,"RA_OF_ASC_NODE":291.751,"ARG_OF_PERICENTER":101.7785,"MEAN_ANOMALY":258.3135,"EPHEMERIS_TYPE":0,"CLASSIFICATION_TYPE":"U","NORAD_CAT_ID":66417,"ELEMENT_SET_NO":999,"REV_AT_EPOCH":1653,"BSTAR":0.00013234226,"MEAN_MOTION_DOT":-6.3e-7,"MEAN_MOTION_DDOT":0},{"OBJECT_NAME":"SL-16 DEB","OBJECT_ID":"1992-093G","EPOCH":"2026-03-09T22:33:44.060256","MEAN_MOTION":13.71033161,"ECCENTRICITY":0.02122513,"INCLINATION":71.0076,"RA_OF_ASC_NODE":6.3738,"ARG_OF_PERICENTER":255.6986,"MEAN_ANOMALY":171.838,"EPHEMERIS_TYPE":0,"CLASSIFICATION_TYPE":"U","NORAD_CAT_ID":22292,"ELEMENT_SET_NO":999,"REV_AT_EPOCH":65531,"BSTAR":9.5362547e-5,"MEAN_MOTION_DOT":5.6e-7,"MEAN_MOTION_DDOT":0}]
